IRIDIUM 159             
1 43578U 18061K   25317.48197236  .00000054  00000+0  12373-4 0  9999
2 43578  86.3966 146.8910 0002205  87.4342 272.7106 14.34217765382461
IRIDIUM 180             
1 43922U 19002A   25317.76054108  .00000316  00000+0  10591-3 0  9999
2 43922  86.3949  83.6557 0002062  90.1031 270.0401 14.34219742358118
IRIDIUM 176             
1 43923U 19002B   25317.76934372  .00002918  00000+0  45899-3 0  9999
2 43923  86.6073  83.6267 0001851  90.3421 269.8009 14.72236548367551
IRIDIUM 168             
1 43924U 19002C   25317.82396685  .00000356  00000+0  12005-3 0  9993
2 43924  86.3951  83.7005 0002002  91.9381 268.2044 14.34219947358101
IRIDIUM 173             
1 43925U 19002D   25317.46243861  .00000031  00000+0  39473-5 0  9991
2 43925  86.3950  83.7492 0001876  87.9447 272.1964 14.34221452358038
IRIDIUM 169             
1 43926U 19002E   25317.90757053  .00000358  00000+0  11061-3 0  9997
2 43926  86.4200 115.2143 0001151  58.6415 301.4896 14.38612086359276
IRIDIUM 172             
1 43927U 19002F   25317.59563405  .00000384  00000+0  13009-3 0  9992
2 43927  86.3948  83.7008 0002276  90.2280 269.9176 14.34219790358061
IRIDIUM 175             
1 43928U 19002G   25317.49265558  .00002638  00000+0  41422-3 0  9994
2 43928  86.1526  27.7966 0002269 114.0387 246.1067 14.72258082367502
